[
    {
        "Altitude(m)": 555601.0659415688,
        "Argument of Periapsis(deg)": 0.033114955553567506,
        "Eccentricity": 0.0,
        "Inclination(deg)": 53.0,
        "Latitude(deg)": 33.25971829251446,
        "Longitude(deg)": 10.453286140111356,
        "Mean Anomaly(deg)": 43.185364337887854,
        "RAAN(deg)": 84.95071684264009,
        "Satellite Name": "Starlink Shell 1 395",
        "Satellite Number": 395,
        "Semi-Major Axis(m)": 6931778.249405717,
        "Time(s)": 950
    },
    {
        "Altitude(m)": 555680.9468314705,
        "Argument of Periapsis(deg)": 0.03346353403307874,
        "Eccentricity": 0.0,
        "Inclination(deg)": 53.0,
        "Latitude(deg)": 33.69622729267188,
        "Longitude(deg)": 10.952377259565804,
        "Mean Anomaly(deg)": 43.81219554144464,
        "RAAN(deg)": 84.95019807256261,
        "Satellite Name": "Starlink Shell 1 395",
        "Satellite Number": 395,
        "Semi-Major Axis(m)": 6931778.249405717,
        "Time(s)": 960
    },
    {
        "Altitude(m)": 555761.4348367851,
        "Argument of Periapsis(deg)": 0.03381211251258998,
        "Eccentricity": 0.0,
        "Inclination(deg)": 53.0,
        "Latitude(deg)": 34.13031801147187,
        "Longitude(deg)": 11.45694027393207,
        "Mean Anomaly(deg)": 44.4390267450014,
        "RAAN(deg)": 84.94967930248514,
        "Satellite Name": "Starlink Shell 1 395",
        "Satellite Number": 395,
        "Semi-Major Axis(m)": 6931778.249405717,
        "Time(s)": 970
    },
    {
        "Altitude(m)": 555842.4743604829,
        "Argument of Periapsis(deg)": 0.034160690992101214,
        "Eccentricity": 0.0,
        "Inclination(deg)": 53.0,
        "Latitude(deg)": 34.56192674957635,
        "Longitude(deg)": 11.967090526089716,
        "Mean Anomaly(deg)": 45.06585794855804,
        "RAAN(deg)": 84.94916053240767,
        "Satellite Name": "Starlink Shell 1 395",
        "Satellite Number": 395,
        "Semi-Major Axis(m)": 6931778.249405717,
        "Time(s)": 980
    },
    {
        "Altitude(m)": 555924.0097321781,
        "Argument of Periapsis(deg)": 0.034509269471612446,
        "Eccentricity": 0.0,
        "Inclination(deg)": 53.0,
        "Latitude(deg)": 34.99098833555501,
        "Longitude(deg)": 12.482944792211924,
        "Mean Anomaly(deg)": 45.6926891521147,
        "RAAN(deg)": 84.9486417623302,
        "Satellite Name": "Starlink Shell 1 395",
        "Satellite Number": 395,
        "Semi-Major Axis(m)": 6931778.249405717,
        "Time(s)": 990
    }
]